[
    {
        "Altitude(m)": 612513.9603438973,
        "Argument of Periapsis(deg)": 0.0,
        "Eccentricity": 0.0,
        "Inclination(deg)": 60.0,
        "Latitude(deg)": -28.136056230853775,
        "Longitude(deg)": -92.08689124464453,
        "Mean Anomaly(deg)": -147.2727,
        "RAAN(deg)": 170.00000000000003,
        "Satellite Name": "Test1 761",
        "Satellite Number": 761,
        "Semi-Major Axis(m)": 6980739.136638005,
        "Time(s)": 0
    },
    {
        "Altitude(m)": 612708.3286791862,
        "Argument of Periapsis(deg)": 0.00010418945913296404,
        "Eccentricity": 0.0,
        "Inclination(deg)": 60.0,
        "Latitude(deg)": -28.64779545177075,
        "Longitude(deg)": -91.72966068668039,
        "Mean Anomaly(deg)": -146.65259385453817,
        "RAAN(deg)": 169.99957995086027,
        "Satellite Name": "Test1 761",
        "Satellite Number": 761,
        "Semi-Major Axis(m)": 6980739.136638005,
        "Time(s)": 10
    }
]